CCSDS_OMM_VERS = 2.0
CREATION_DATE  = 
ORIGINATOR     = 

OBJECT_NAME    = STARLINK-36350
OBJECT_ID      = 2026-016M
CENTER_NAME    = EARTH
REF_FRAME      = TEME
TIME_SYSTEM    = UTC
MEAN_ELEMENT_THEORY = SGP/SGP4

EPOCH          = 2026-02-07T12:00:00.998784
MEAN_MOTION    = 15.80761411
ECCENTRICITY   = .0001341
INCLINATION    = 97.2782
RA_OF_ASC_NODE = 97.4214
ARG_OF_PERICENTER = 103.2914
MEAN_ANOMALY   = 344.5574

EPHEMERIS_TYPE = 0
CLASSIFICATION_TYPE = U
NORAD_CAT_ID   = 67572
ELEMENT_SET_NO = 999
REV_AT_EPOCH   = 308
BSTAR          = .35034E-3
MEAN_MOTION_DOT = .67317E-3
MEAN_MOTION_DDOT = 0

CCSDS_OMM_VERS = 2.0
CREATION_DATE  = 
ORIGINATOR     = 

OBJECT_NAME    = STARLINK-36588
OBJECT_ID      = 2026-016N
CENTER_NAME    = EARTH
REF_FRAME      = TEME
TIME_SYSTEM    = UTC
MEAN_ELEMENT_THEORY = SGP/SGP4

EPOCH          = 2026-02-07T12:00:00.998784
MEAN_MOTION    = 15.80737043
ECCENTRICITY   = .0001291
INCLINATION    = 97.2801
RA_OF_ASC_NODE = 97.4248
ARG_OF_PERICENTER = 95.8049
MEAN_ANOMALY   = 0.4009

EPHEMERIS_TYPE = 0
CLASSIFICATION_TYPE = U
NORAD_CAT_ID   = 67573
ELEMENT_SET_NO = 999
REV_AT_EPOCH   = 324
BSTAR          = .88108E-3
MEAN_MOTION_DOT = .171363E-2
MEAN_MOTION_DDOT = 0

CCSDS_OMM_VERS = 2.0
CREATION_DATE  = 
ORIGINATOR     = 

OBJECT_NAME    = STARLINK-36594
OBJECT_ID      = 2026-016P
CENTER_NAME    = EARTH
REF_FRAME      = TEME
TIME_SYSTEM    = UTC
MEAN_ELEMENT_THEORY = SGP/SGP4

EPOCH          = 2026-02-07T12:00:00.998784
MEAN_MOTION    = 15.80748975
ECCENTRICITY   = .0001036
INCLINATION    = 97.2794
RA_OF_ASC_NODE = 97.4265
ARG_OF_PERICENTER = 102.8784
MEAN_ANOMALY   = 358.4107

EPHEMERIS_TYPE = 0
CLASSIFICATION_TYPE = U
NORAD_CAT_ID   = 67574
ELEMENT_SET_NO = 999
REV_AT_EPOCH   = 324
BSTAR          = .64719E-3
MEAN_MOTION_DOT = .125235E-2
MEAN_MOTION_DDOT = 0

CCSDS_OMM_VERS = 2.0
CREATION_DATE  = 
ORIGINATOR     = 

OBJECT_NAME    = STARLINK-36400
OBJECT_ID      = 2026-016Q
CENTER_NAME    = EARTH
REF_FRAME      = TEME
TIME_SYSTEM    = UTC
MEAN_ELEMENT_THEORY = SGP/SGP4

EPOCH          = 2026-02-07T12:00:00.998784
MEAN_MOTION    = 15.80742852
ECCENTRICITY   = .0001153
INCLINATION    = 97.2777
RA_OF_ASC_NODE = 97.4298
ARG_OF_PERICENTER = 94.7782
MEAN_ANOMALY   = 12.1552

EPHEMERIS_TYPE = 0
CLASSIFICATION_TYPE = U
NORAD_CAT_ID   = 67575
ELEMENT_SET_NO = 999
REV_AT_EPOCH   = 313
BSTAR          = .89165E-3
MEAN_MOTION_DOT = .173509E-2
MEAN_MOTION_DDOT = 0

CCSDS_OMM_VERS = 2.0
CREATION_DATE  = 
ORIGINATOR     = 

OBJECT_NAME    = STARLINK-36591
OBJECT_ID      = 2026-016R
CENTER_NAME    = EARTH
REF_FRAME      = TEME
TIME_SYSTEM    = UTC
MEAN_ELEMENT_THEORY = SGP/SGP4

EPOCH          = 2026-02-07T12:00:00.998784
MEAN_MOTION    = 15.80811490
ECCENTRICITY   = .0001282
INCLINATION    = 97.2787
RA_OF_ASC_NODE = 97.4303
ARG_OF_PERICENTER = 87.8048
MEAN_ANOMALY   = 25.0260

EPHEMERIS_TYPE = 0
CLASSIFICATION_TYPE = U
NORAD_CAT_ID   = 67576
ELEMENT_SET_NO = 999
REV_AT_EPOCH   = 319
BSTAR          = -.17239E-3
MEAN_MOTION_DOT = -.33031E-3
MEAN_MOTION_DDOT = 0

CCSDS_OMM_VERS = 2.0
CREATION_DATE  = 
ORIGINATOR     = 

OBJECT_NAME    = STARLINK-36590
OBJECT_ID      = 2026-016S
CENTER_NAME    = EARTH
REF_FRAME      = TEME
TIME_SYSTEM    = UTC
MEAN_ELEMENT_THEORY = SGP/SGP4

EPOCH          = 2026-02-07T12:00:00.998784
MEAN_MOTION    = 15.80743119
ECCENTRICITY   = .0001343
INCLINATION    = 97.2767
RA_OF_ASC_NODE = 97.4334
ARG_OF_PERICENTER = 101.2775
MEAN_ANOMALY   = 16.9896

EPHEMERIS_TYPE = 0
CLASSIFICATION_TYPE = U
NORAD_CAT_ID   = 67577
ELEMENT_SET_NO = 999
REV_AT_EPOCH   = 319
BSTAR          = .9274E-3
MEAN_MOTION_DOT = .180622E-2
MEAN_MOTION_DDOT = 0

CCSDS_OMM_VERS = 2.0
CREATION_DATE  = 
ORIGINATOR     = 

OBJECT_NAME    = STARLINK-36613
OBJECT_ID      = 2026-016T
CENTER_NAME    = EARTH
REF_FRAME      = TEME
TIME_SYSTEM    = UTC
MEAN_ELEMENT_THEORY = SGP/SGP4

EPOCH          = 2026-02-07T12:00:00.998784
MEAN_MOTION    = 15.80805067
ECCENTRICITY   = .0001614
INCLINATION    = 97.2769
RA_OF_ASC_NODE = 97.4348
ARG_OF_PERICENTER = 104.8459
MEAN_ANOMALY   = 19.9220

EPHEMERIS_TYPE = 0
CLASSIFICATION_TYPE = U
NORAD_CAT_ID   = 67578
ELEMENT_SET_NO = 999
REV_AT_EPOCH   = 319
BSTAR          = .20507E-3
MEAN_MOTION_DOT = .39296E-3
MEAN_MOTION_DDOT = 0

CCSDS_OMM_VERS = 2.0
CREATION_DATE  = 
ORIGINATOR     = 

OBJECT_NAME    = STARLINK-36571
OBJECT_ID      = 2026-016U
CENTER_NAME    = EARTH
REF_FRAME      = TEME
TIME_SYSTEM    = UTC
MEAN_ELEMENT_THEORY = SGP/SGP4

EPOCH          = 2026-02-07T06:00:02.999808
MEAN_MOTION    = 15.80838029
ECCENTRICITY   = .00015638
INCLINATION    = 97.2767
RA_OF_ASC_NODE = 97.1755
ARG_OF_PERICENTER = 102.4731
MEAN_ANOMALY   = 49.0864

EPHEMERIS_TYPE = 0
CLASSIFICATION_TYPE = U
NORAD_CAT_ID   = 67579
ELEMENT_SET_NO = 999
REV_AT_EPOCH   = 315
BSTAR          = -.18395861E-3
MEAN_MOTION_DOT = -.35273E-3
MEAN_MOTION_DDOT = 0

CCSDS_OMM_VERS = 2.0
CREATION_DATE  = 
ORIGINATOR     = 

OBJECT_NAME    = STARLINK-36612
OBJECT_ID      = 2026-016V
CENTER_NAME    = EARTH
REF_FRAME      = TEME
TIME_SYSTEM    = UTC
MEAN_ELEMENT_THEORY = SGP/SGP4

EPOCH          = 2026-02-07T06:00:02.999808
MEAN_MOTION    = 15.80846546
ECCENTRICITY   = .0001334
INCLINATION    = 97.2765
RA_OF_ASC_NODE = 97.1778
ARG_OF_PERICENTER = 91.2942
MEAN_ANOMALY   = 66.5283

EPHEMERIS_TYPE = 0
CLASSIFICATION_TYPE = U
NORAD_CAT_ID   = 67580
ELEMENT_SET_NO = 999
REV_AT_EPOCH   = 315
BSTAR          = -.2928291E-3
MEAN_MOTION_DOT = -.55952E-3
MEAN_MOTION_DDOT = 0

CCSDS_OMM_VERS = 2.0
CREATION_DATE  = 
ORIGINATOR     = 

OBJECT_NAME    = STARLINK-36632
OBJECT_ID      = 2026-016W
CENTER_NAME    = EARTH
REF_FRAME      = TEME
TIME_SYSTEM    = UTC
MEAN_ELEMENT_THEORY = SGP/SGP4

EPOCH          = 2026-02-07T06:00:02.999808
MEAN_MOTION    = 15.80696643
ECCENTRICITY   = .00014393
INCLINATION    = 97.2766
RA_OF_ASC_NODE = 97.1866
ARG_OF_PERICENTER = 51.7348
MEAN_ANOMALY   = 124.1196

EPHEMERIS_TYPE = 0
CLASSIFICATION_TYPE = U
NORAD_CAT_ID   = 67581
ELEMENT_SET_NO = 999
REV_AT_EPOCH   = 315
BSTAR          = .92329508E-3
MEAN_MOTION_DOT = .179418E-2
MEAN_MOTION_DDOT = 0

CCSDS_OMM_VERS = 2.0
CREATION_DATE  = 
ORIGINATOR     = 

OBJECT_NAME    = STARLINK-36609
OBJECT_ID      = 2026-016X
CENTER_NAME    = EARTH
REF_FRAME      = TEME
TIME_SYSTEM    = UTC
MEAN_ELEMENT_THEORY = SGP/SGP4

EPOCH          = 2026-02-07T06:00:02.999808
MEAN_MOTION    = 15.80905730
ECCENTRICITY   = .00010312
INCLINATION    = 97.2762
RA_OF_ASC_NODE = 97.1879
ARG_OF_PERICENTER = 77.3325
MEAN_ANOMALY   = 104.6570

EPHEMERIS_TYPE = 0
CLASSIFICATION_TYPE = U
NORAD_CAT_ID   = 67582
ELEMENT_SET_NO = 999
REV_AT_EPOCH   = 315
BSTAR          = -.89255382E-3
MEAN_MOTION_DOT = -.168535E-2
MEAN_MOTION_DDOT = 0

CCSDS_OMM_VERS = 2.0
CREATION_DATE  = 
ORIGINATOR     = 

OBJECT_NAME    = STARLINK-36577
OBJECT_ID      = 2026-016Y
CENTER_NAME    = EARTH
REF_FRAME      = TEME
TIME_SYSTEM    = UTC
MEAN_ELEMENT_THEORY = SGP/SGP4

EPOCH          = 2026-02-07T06:00:02.999808
MEAN_MOTION    = 15.80819279
ECCENTRICITY   = .00011718
INCLINATION    = 97.2758
RA_OF_ASC_NODE = 97.1807
ARG_OF_PERICENTER = 67.4778
MEAN_ANOMALY   = 98.7496

EPHEMERIS_TYPE = 0
CLASSIFICATION_TYPE = U
NORAD_CAT_ID   = 67583
ELEMENT_SET_NO = 999
REV_AT_EPOCH   = 315
BSTAR          = -.26871715E-4
MEAN_MOTION_DOT = -.5286E-4
MEAN_MOTION_DDOT = 0

