STARLINK-36350          
1 67572U 26016M   26038.50001156  .00067317  00000+0  35034-3 0  9990
2 67572  97.2782  97.4214 0001341 103.2914 344.5574 15.80761411  3087
STARLINK-36588          
1 67573U 26016N   26038.50001156  .00171363  00000+0  88108-3 0  9998
2 67573  97.2801  97.4248 0001291  95.8049   0.4009 15.80737043  3249
STARLINK-36594          
1 67574U 26016P   26038.50001156  .00125235  00000+0  64719-3 0  9998
2 67574  97.2794  97.4265 0001036 102.8784 358.4107 15.80748975  3243
STARLINK-36400          
1 67575U 26016Q   26038.50001156  .00173509  00000+0  89165-3 0  9998
2 67575  97.2777  97.4298 0001153  94.7782  12.1552 15.80742852  3132
STARLINK-36591          
1 67576U 26016R   26038.50001156 -.00033031  00000+0 -17239-3 0  9999
2 67576  97.2787  97.4303 0001282  87.8048  25.0260 15.80811490  3192
STARLINK-36590          
1 67577U 26016S   26038.50001156  .00180622  00000+0  92740-3 0  9997
2 67577  97.2767  97.4334 0001343 101.2775  16.9896 15.80743119  3197
STARLINK-36613          
1 67578U 26016T   26038.50001156  .00039296  00000+0  20507-3 0  9990
2 67578  97.2769  97.4348 0001614 104.8459  19.9220 15.80805067  3199
STARLINK-36571          
1 67579U 26016U   26038.25003472 -.00035273  00000+0 -18396-3 0  9992
2 67579  97.2767  97.1755 0001563 102.4731  49.0864 15.80838029  3155
STARLINK-36612          
1 67580U 26016V   26038.25003472 -.00055952  00000+0 -29283-3 0  9997
2 67580  97.2765  97.1778 0001334  91.2942  66.5283 15.80846546  3157
STARLINK-36632          
1 67581U 26016W   26038.25003472  .00179418  00000+0  92330-3 0  9993
2 67581  97.2766  97.1866 0001439  51.7348 124.1196 15.80696643  3159
STARLINK-36609          
1 67582U 26016X   26038.25003472 -.00168535  00000+0 -89255-3 0  9996
2 67582  97.2762  97.1879 0001031  77.3325 104.6570 15.80905730  3156
STARLINK-36577          
1 67583U 26016Y   26038.25003472 -.00005286  00000+0 -26872-4 0  9997
2 67583  97.2758  97.1807 0001171  67.4778  98.7496 15.80819279  3152
